NORAD_CAT_ID,OBJECT_NAME,OBJECT_TYPE,EPOCH,MEAN_MOTION,ECCENTRICITY,INCLINATION,RA_OF_ASC_NODE,ARG_OF_PERICENTER,MEAN_ANOMALY,BSTAR,MEAN_MOTION_DOT,MEAN_MOTION_DDOT,TLE_LINE0,TLE_LINE1,TLE_LINE2,SEMIMAJOR_AXIS,PERIOD,APOGEE,PERIGEE,DECAYED
54073.0,STARLINK-5146,PAYLOAD,2024-08-01 22:52:01,15.08868878,7.13e-05,53.2164,83.7666,61.7217,298.3847,0.00023226,3.414e-05,0.0,0 STARLINK-5146,1 54073U 22136Y   24214.95279943  .00003414  00000-0  23226-3 0  9994,2 54073  53.2164  83.7666 0000713  61.7217 298.3847 15.08868878 98640,6917.792,95.436,540.15,539.164,0.0
54073.0,STARLINK-5146,PAYLOAD,2024-08-02 08:24:22,15.08840202,0.0001983,53.2165,81.9832,87.4343,272.6876,0.00022768,3.337e-05,0.0,0 STARLINK-5146,1 54073U 22136Y   24215.35025841  .00003337  00000-0  22768-3 0  9999,2 54073  53.2165  81.9832 0001983  87.4343 272.6876 15.08840202 99189,6917.88,95.438,541.117,538.373,0.0
54073.0,STARLINK-5146,PAYLOAD,2024-08-02 21:07:28,15.08824881,0.000123,53.2175,79.6061,90.2229,269.8904,0.000188,2.704e-05,0.0,0 STARLINK-5146,1 54073U 22136Y   24215.88019247  .00002704  00000-0  18800-3 0  9999,2 54073  53.2175  79.6061 0001230  90.2229 269.8904 15.08824881 99262,6917.927,95.439,540.643,538.941,0.0
54073.0,STARLINK-5146,PAYLOAD,2024-08-02 22:42:51,15.08837536,0.0001405,53.2153,79.3074,84.3276,275.7876,0.00016765,2.381e-05,0.0,0 STARLINK-5146,1 54073U 22136Y   24215.94642454  .00002381  00000-0  16765-3 0  9997,2 54073  53.2153  79.3074 0001405  84.3276 275.7876 15.08837536 98791,6917.888,95.438,540.725,538.781,0.0
54073.0,STARLINK-5146,PAYLOAD,2024-08-03 08:15:09,15.08846681,0.0001509,53.2156,77.5272,76.7172,283.3988,7.1798e-05,8.55e-06,0.0,0 STARLINK-5146,1 54073U 22136Y   24216.34385894  .00000855  00000-0  71798-4 0  9996,2 54073  53.2156  77.5272 0001509  76.7172 283.3988 15.08846681 99330,6917.86,95.437,540.769,538.681,0.0
54073.0,STARLINK-5146,PAYLOAD,2024-08-03 20:58:13,15.08860156,0.0001396,53.2156,75.1427,86.314,273.8012,0.00010019,1.308e-05,0.0,0 STARLINK-5146,1 54073U 22136Y   24216.87376952  .00001308  00000-0  10019-3 0  9991,2 54073  53.2156  75.1427 0001396  86.3140 273.8012 15.08860156 99416,6917.819,95.436,540.65,538.718,0.0
54073.0,STARLINK-5146,PAYLOAD,2024-08-04 08:05:56,15.08846569,0.0001392,53.2161,73.0615,93.7809,266.3342,0.00012506,1.703e-05,0.0,0 STARLINK-5146,1 54073U 22136Y   24217.33745451  .00001703  00000-0  12506-3 0  9999,2 54073  53.2161  73.0615 0001392  93.7809 266.3342 15.08846569 99480,6917.86,95.437,540.688,538.762,0.0
54073.0,STARLINK-5146,PAYLOAD,2024-08-04 14:27:28,15.0884623,0.0001831,53.2154,71.8752,80.3016,279.8183,0.00029686,4.44e-05,0.0,0 STARLINK-5146,1 54073U 22136Y   24217.60241808  .00004440  00000-0  29686-3 0  9994,2 54073  53.2154  71.8752 0001831  80.3016 279.8183 15.08846230 99049,6917.861,95.437,540.993,538.46,0.0
54073.0,STARLINK-5146,PAYLOAD,2024-08-04 20:49:01,15.08859056,0.0001522,53.2159,70.6836,98.2953,261.8212,0.00062058,9.607e-05,0.0,0 STARLINK-5146,1 54073U 22136Y   24217.86737269  .00009607  00000-0  62058-3 0  9993,2 54073  53.2159  70.6836 0001522  98.2953 261.8212 15.08859056 99087,6917.822,95.436,540.74,538.634,0.0
54073.0,STARLINK-5146,PAYLOAD,2024-08-05 20:39:47,15.08816999,0.0001217,53.2158,66.222,92.567,267.5461,-0.00072948,-0.00011871,0.0,0 STARLINK-5146,1 54073U 22136Y   24218.86097141 -.00011871  00000-0 -72948-3 0  9999,2 54073  53.2158  66.2220 0001217  92.5670 267.5461 15.08816999 99716,6917.951,95.439,540.658,538.974,0.0
54073.0,STARLINK-5146,PAYLOAD,2024-08-05 23:50:34,15.08814951,0.0001263,53.2158,65.627,93.5816,266.532,-0.00063471,-0.00010368,0.0,0 STARLINK-5146,1 54073U 22136Y   24218.99345458 -.00010368  00000-0 -63471-3 0  9991,2 54073  53.2158  65.6270 0001263  93.5816 266.5320 15.08814951 99256,6917.957,95.439,540.696,538.948,0.0
54073.0,STARLINK-5146,PAYLOAD,2024-08-06 18:55:13,15.08835198,0.0001173,53.216,62.0597,92.3655,267.7471,0.0012607,0.0001983,0.0,0 STARLINK-5146,1 54073U 22136Y   24219.78834544  .00019830  00000-0  12607-2 0  9993,2 54073  53.2160  62.0597 0001173  92.3655 267.7471 15.08835198 99852,6917.895,95.438,540.572,538.949,0.0
54073.0,STARLINK-5146,PAYLOAD,2024-08-07 12:24:27,15.08855953,0.0001126,53.2155,58.79,92.8396,267.2725,0.0010212,0.00016009,0.0,0 STARLINK-5146,1 54073U 22136Y   24220.51698308  .00016009  00000-0  10212-2 0  9997,2 54073  53.2155  58.7900 0001126  92.8396 267.2725 15.08855953 99488,6917.832,95.437,540.476,538.918,0.0
54073.0,STARLINK-5146,PAYLOAD,2024-08-07 18:45:59,15.08859391,0.0001082,53.2157,57.5995,91.9954,268.1162,0.00087264,0.00013635,0.0,0 STARLINK-5146,1 54073U 22136Y   24220.78194080  .00013635  00000-0  87264-3 0  9998,2 54073  53.2157  57.5995 0001082  91.9954 268.1162 15.08859391100008,6917.821,95.436,540.435,538.938,0.0
54073.0,STARLINK-5146,PAYLOAD,2024-08-08 12:15:14,15.08859523,0.0001163,53.2155,54.3291,67.0787,293.0328,0.00078009,0.00012156,0.0,0 STARLINK-5146,1 54073U 22136Y   24221.51057901  .00012156  00000-0  78009-3 0  9994,2 54073  53.2155  54.3291 0001163  67.0787 293.0328 15.08859523 99632,6917.821,95.436,540.49,538.881,0.0
54073.0,STARLINK-5146,PAYLOAD,2024-08-08 21:47:32,15.08853404,0.0001194,53.2154,52.5403,95.765,264.3478,0.00050997,7.841e-05,0.0,0 STARLINK-5146,1 54073U 22136Y   24221.90801697  .00007841  00000-0  50997-3 0  9997,2 54073  53.2154  52.5403 0001194  95.7650 264.3478 15.08853404100178,6917.839,95.437,540.53,538.878,0.0
54073.0,STARLINK-5146,PAYLOAD,2024-08-09 05:44:28,15.08845459,0.0001611,53.2149,51.0548,80.1109,280.0065,0.0002253,3.3e-05,0.0,0 STARLINK-5146,1 54073U 22136Y   24222.23921866  .00003300  00000-0  22530-3 0  9993,2 54073  53.2149  51.0548 0001611  80.1109 280.0065 15.08845459100221,6917.864,95.437,540.843,538.614,0.0
54073.0,STARLINK-5146,PAYLOAD,2024-08-09 21:38:19,15.08853063,0.0001099,53.2156,48.0823,87.3992,272.7126,0.00037161,5.633e-05,0.0,0 STARLINK-5146,1 54073U 22136Y   24222.90161599  .00005633  00000-0  37161-3 0  9993,2 54073  53.2156  48.0823 0001099  87.3992 272.7126 15.08853063 99841,6917.84,95.437,540.466,538.945,0.0
54073.0,STARLINK-5146,PAYLOAD,2024-08-10 11:56:48,15.08832125,8.81e-05,53.2177,45.4036,97.3025,262.8067,-8.7094e-05,-1.673e-05,0.0,0 STARLINK-5146,1 54073U 22136Y   24223.49778402 -.00001673  00000-0 -87094-4 0  9998,2 54073  53.2177  45.4036 0000881  97.3025 262.8067 15.08832125100413,6917.904,95.438,540.379,539.16,0.0
54073.0,STARLINK-5146,PAYLOAD,2024-08-10 19:53:43,15.08846944,0.0001454,53.2168,43.9179,120.5911,239.5225,0.00022488,3.293e-05,0.0,0 STARLINK-5146,1 54073U 22136Y   24223.82897909  .00003293  00000-0  22488-3 0  9992,2 54073  53.2168  43.9179 0001454 120.5911 239.5225 15.08846944100460,6917.859,95.437,540.73,538.718,0.0
54073.0,STARLINK-5146,PAYLOAD,2024-08-11 05:26:02,15.088436,0.0001132,53.2168,42.1343,93.6828,266.4294,0.00020227,2.933e-05,0.0,0 STARLINK-5146,1 54073U 22136Y   24224.22642265  .00002933  00000-0  20227-3 0  9999,2 54073  53.2168  42.1343 0001132  93.6828 266.4294 15.08843600100522,6917.869,95.437,540.517,538.951,0.0
54073.0,STARLINK-5146,PAYLOAD,2024-08-11 18:09:08,15.0883544,0.0001452,53.2189,39.7509,108.8352,251.2798,0.00011436,1.532e-05,0.0,0 STARLINK-5146,1 54073U 22136Y   24224.75634732  .00001532  00000-0  11436-3 0  9993,2 54073  53.2189  39.7509 0001452 108.8352 251.2798 15.08835440100600,6917.894,95.438,540.764,538.755,0.0
54073.0,STARLINK-5146,PAYLOAD,2024-08-12 11:38:22,15.08850138,0.0001657,53.2158,36.4856,87.5445,272.5737,0.00031477,4.726e-05,0.0,0 STARLINK-5146,1 54073U 22136Y   24225.48498536  .00004726  00000-0  31477-3 0  9999,2 54073  53.2158  36.4856 0001657  87.5445 272.5737 15.08850138100710,6917.849,95.437,540.861,538.568,0.0
54073.0,STARLINK-5146,PAYLOAD,2024-08-12 21:10:40,15.08881353,0.0001443,53.2171,34.6986,107.0332,253.0819,0.001037,0.00016273,0.0,0 STARLINK-5146,1 54073U 22136Y   24225.88241123  .00016273  00000-0  10370-2 0  9999,2 54073  53.2171  34.6986 0001443 107.0332 253.0819 15.08881353100779,6917.754,95.435,540.617,538.621,0.0
54073.0,STARLINK-5146,PAYLOAD,2024-08-13 11:29:10,15.08825271,0.0002399,53.2139,32.0254,96.5917,263.5349,-0.00030054,-5.067e-05,0.0,0 STARLINK-5146,1 54073U 22136Y   24226.47859197 -.00005067  00000-0 -30054-3 0  9994,2 54073  53.2139  32.0254 0002399  96.5917 263.5349 15.08825271100866,6917.925,95.438,541.45,538.131,0.0
54073.0,STARLINK-5146,PAYLOAD,2024-08-13 21:01:30,15.08805629,0.0001514,53.2158,30.2416,78.8331,281.2832,-0.00052996,-8.704e-05,0.0,0 STARLINK-5146,1 54073U 22136Y   24226.87604474 -.00008704  00000-0 -52996-3 0  9994,2 54073  53.2158  30.2416 0001514  78.8331 281.2832 15.08805629100924,6917.985,95.44,540.898,538.803,0.0
54073.0,STARLINK-5146,PAYLOAD,2024-08-14 09:44:35,15.08830102,8.75e-05,53.2148,27.8612,59.5047,300.6032,0.0001787,2.557e-05,0.0,0 STARLINK-5146,1 54073U 22136Y   24227.40596161  .00002557  00000-0  17870-3 0  9997,2 54073  53.2148  27.8612 0000875  59.5047 300.6032 15.08830102101004,6917.911,95.438,540.381,539.17,0.0
54073.0,STARLINK-5146,PAYLOAD,2024-08-14 14:30:44,15.08838306,0.000117,53.2167,26.9739,56.2596,303.8507,0.00041612,6.341e-05,0.0,0 STARLINK-5146,1 54073U 22136Y   24227.60468014  .00006341  00000-0  41612-3 0  9990,2 54073  53.2167  26.9739 0001170  56.2596 303.8507 15.08838306100552,6917.886,95.438,540.56,538.941,0.0
54073.0,STARLINK-5146,PAYLOAD,2024-08-14 17:41:30,15.08854266,0.0001485,53.2157,26.3733,62.1158,297.9985,0.0013191,0.00020776,0.0,0 STARLINK-5146,1 54073U 22136Y   24227.73716098  .00020776  00000-0  13191-2 0  9990,2 54073  53.2157  26.3733 0001485  62.1158 297.9985 15.08854266101050,6917.837,95.437,540.729,538.674,0.0
54073.0,STARLINK-5146,PAYLOAD,2024-08-15 03:13:49,15.08851422,0.0001542,53.2153,24.5893,61.8843,298.2305,0.00096161,0.00015054,0.0,0 STARLINK-5146,1 54073U 22136Y   24228.13459877  .00015054  00000-0  96161-3 0  9996,2 54073  53.2153  24.5893 0001542  61.8843 298.2305 15.08851422101112,6917.845,95.437,540.777,538.644,0.0
